{
  "type": "FeatureCollection",
  "features": [
    {
      "type": "Feature",
      "properties": {
        "norad_id": 38857,
        "name": "GSAT0103 (GALILEO-FM3)",
        "group": "gnss",
        "lat": -10.684465570216108,
        "lon": 99.3684294886236,
        "alt_km": 23222.550380003424,
        "timestamp": "2025-12-08T19:31:49.054977+00:00",
        "meta_object_name": "GSAT0103 (GALILEO-FM3)",
        "meta_object_id": "2012-055A",
        "meta_epoch": "2025-12-06T11:43:28.953984",
        "meta_mean_motion": 1.7047325,
        "meta_eccentricity": 0.00024686,
        "meta_inclination": 55.6879,
        "meta_ra_of_asc_node": 106.8382,
        "meta_arg_of_pericenter": 267.747,
        "meta_mean_anomaly": 92.1776,
        "meta_ephemeris_type": 0,
        "meta_classification_type": "U",
        "meta_norad_cat_id": 38857,
        "meta_element_set_no": 999,
        "meta_rev_at_epoch": 8172,
        "meta_bstar": 0,
        "meta_mean_motion_dot": 7e-08,
        "meta_mean_motion_ddot": 0,
        "tle_line1": "1 38857U 12055A   25340.48852956  .00000007  00000+0  00000+0 0  9990",
        "tle_line2": "2 38857  55.6879 106.8382 0002468 267.7470  92.1776  1.70473250 81723"
      },
      "geometry": {
        "type": "Point",
        "coordinates": [
          99.3684294886236,
          -10.684465570216108
        ]
      }
    },
    {
      "type": "Feature",
      "properties": {
        "norad_id": 38953,
        "name": "BEIDOU-2 G6 (C02)",
        "group": "gnss",
        "lat": 1.3252953345455682,
        "lon": 94.8473857770463,
        "alt_km": 35786.25966103586,
        "timestamp": "2025-12-08T19:31:49.054988+00:00",
        "meta_object_name": "BEIDOU-2 G6 (C02)",
        "meta_object_id": "2012-059A",
        "meta_epoch": "2025-12-08T01:04:51.660768",
        "meta_mean_motion": 1.0027016,
        "meta_eccentricity": 0.00076578,
        "meta_inclination": 3.9371,
        "meta_ra_of_asc_node": 75.5489,
        "meta_arg_of_pericenter": 289.4213,
        "meta_mean_anomaly": 172.3411,
        "meta_ephemeris_type": 0,
        "meta_classification_type": "U",
        "meta_norad_cat_id": 38953,
        "meta_element_set_no": 999,
        "meta_rev_at_epoch": 4799,
        "meta_bstar": 0,
        "meta_mean_motion_dot": -1.74e-06,
        "meta_mean_motion_ddot": 0,
        "tle_line1": "1 38953U 12059A   25342.04504237 -.00000174  00000+0  00000+0 0  9997",
        "tle_line2": "2 38953   3.9371  75.5489 0007657 289.4213 172.3411  1.00270160 47990"
      },
      "geometry": {
        "type": "Point",
        "coordinates": [
          94.8473857770463,
          1.3252953345455682
        ]
      }
    },
    {
      "type": "Feature",
      "properties": {
        "norad_id": 38977,
        "name": "LUCH 5B (SDCM/PRN 125)",
        "group": "gnss",
        "lat": -8.460628913908126,
        "lon": -5.08615449775399,
        "alt_km": 35798.63496507852,
        "timestamp": "2025-12-08T19:31:49.054999+00:00",
        "meta_object_name": "LUCH 5B (SDCM/PRN 125)",
        "meta_object_id": "2012-061A",
        "meta_epoch": "2025-12-07T23:49:43.593888",
        "meta_mean_motion": 1.00272278,
        "meta_eccentricity": 0.00073357,
        "meta_inclination": 10.0707,
        "meta_ra_of_asc_node": 51.751,
        "meta_arg_of_pericenter": 190.712,
        "meta_mean_anomaly": 175.63,
        "meta_ephemeris_type": 0,
        "meta_classification_type": "U",
        "meta_norad_cat_id": 38977,
        "meta_element_set_no": 999,
        "meta_rev_at_epoch": 4769,
        "meta_bstar": 0,
        "meta_mean_motion_dot": -1.39e-06,
        "meta_mean_motion_ddot": 0,
        "tle_line1": "1 38977U 12061A   25341.99286567 -.00000139  00000+0  00000+0 0  9993",
        "tle_line2": "2 38977  10.0707  51.7510 0007335 190.7120 175.6300  1.00272278 47695"
      },
      "geometry": {
        "type": "Point",
        "coordinates": [
          -5.08615449775399,
          -8.460628913908126
        ]
      }
    },
    {
      "type": "Feature",
      "properties": {
        "norad_id": 39155,
        "name": "COSMOS 2485 (747)",
        "group": "gnss",
        "lat": -31.88119463139091,
        "lon": 63.40723825540717,
        "alt_km": 19139.715614657278,
        "timestamp": "2025-12-08T19:31:49.055010+00:00",
        "meta_object_name": "COSMOS 2485 (747)",
        "meta_object_id": "2013-019A",
        "meta_epoch": "2025-12-05T02:32:45.729312",
        "meta_mean_motion": 2.13102875,
        "meta_eccentricity": 0.00246247,
        "meta_inclination": 65.3094,
        "meta_ra_of_asc_node": 80.124,
        "meta_arg_of_pericenter": 229.2984,
        "meta_mean_anomaly": 130.4888,
        "meta_ephemeris_type": 0,
        "meta_classification_type": "U",
        "meta_norad_cat_id": 39155,
        "meta_element_set_no": 999,
        "meta_rev_at_epoch": 9814,
        "meta_bstar": 0,
        "meta_mean_motion_dot": -2.1e-07,
        "meta_mean_motion_ddot": 0,
        "tle_line1": "1 39155U 13019A   25339.10608483 -.00000021  00000+0  00000+0 0  9991",
        "tle_line2": "2 39155  65.3094  80.1240 0024624 229.2984 130.4888  2.13102875 98144"
      },
      "geometry": {
        "type": "Point",
        "coordinates": [
          63.40723825540717,
          -31.88119463139091
        ]
      }
    },
    {
      "type": "Feature",
      "properties": {
        "norad_id": 39166,
        "name": "GPS BIIF-4  (PRN 27)",
        "group": "gnss",
        "lat": 47.46827071930395,
        "lon": -32.701710875625075,
        "alt_km": 19825.316498963457,
        "timestamp": "2025-12-08T19:31:49.055021+00:00",
        "meta_object_name": "GPS BIIF-4  (PRN 27)",
        "meta_object_id": "2013-023A",
        "meta_epoch": "2025-12-07T05:32:23.722368",
        "meta_mean_motion": 2.00565063,
        "meta_eccentricity": 0.01375641,
        "meta_inclination": 54.6569,
        "meta_ra_of_asc_node": 276.7922,
        "meta_arg_of_pericenter": 48.5542,
        "meta_mean_anomaly": 312.6301,
        "meta_ephemeris_type": 0,
        "meta_classification_type": "U",
        "meta_norad_cat_id": 39166,
        "meta_element_set_no": 999,
        "meta_rev_at_epoch": 9203,
        "meta_bstar": 0,
        "meta_mean_motion_dot": -3.4e-07,
        "meta_mean_motion_ddot": 0,
        "tle_line1": "1 39166U 13023A   25341.23083012 -.00000034  00000+0  00000+0 0  9994",
        "tle_line2": "2 39166  54.6569 276.7922 0137564  48.5542 312.6301  2.00565063 92038"
      },
      "geometry": {
        "type": "Point",
        "coordinates": [
          -32.701710875625075,
          47.46827071930395
        ]
      }
    },
    {
      "type": "Feature",
      "properties": {
        "norad_id": 39199,
        "name": "IRNSS-1A",
        "group": "gnss",
        "lat": -0.29094066286772663,
        "lon": 66.20192757004409,
        "alt_km": 35875.03435704912,
        "timestamp": "2025-12-08T19:31:49.055032+00:00",
        "meta_object_name": "IRNSS-1A",
        "meta_object_id": "2013-034A",
        "meta_epoch": "2025-12-02T19:49:26.431104",
        "meta_mean_motion": 1.00279053,
        "meta_eccentricity": 0.00216608,
        "meta_inclination": 35.2852,
        "meta_ra_of_asc_node": 66.6964,
        "meta_arg_of_pericenter": 185.4059,
        "meta_mean_anomaly": 172.3398,
        "meta_ephemeris_type": 0,
        "meta_classification_type": "U",
        "meta_norad_cat_id": 39199,
        "meta_element_set_no": 999,
        "meta_rev_at_epoch": 4539,
        "meta_bstar": 0,
        "meta_mean_motion_dot": 6.5e-07,
        "meta_mean_motion_ddot": 0,
        "tle_line1": "1 39199U 13034A   25336.82600036  .00000065  00000+0  00000+0 0  9995",
        "tle_line2": "2 39199  35.2852  66.6964 0021660 185.4059 172.3398  1.00279053 45393"
      },
      "geometry": {
        "type": "Point",
        "coordinates": [
          66.20192757004409,
          -0.29094066286772663
        ]
      }
    },
    {
      "type": "Feature",
      "properties": {
        "norad_id": 39533,
        "name": "GPS BIIF-5  (PRN 30)",
        "group": "gnss",
        "lat": 47.43433339226018,
        "lon": -149.54006216421703,
        "alt_km": 20373.00408214054,
        "timestamp": "2025-12-08T19:31:49.055044+00:00",
        "meta_object_name": "GPS BIIF-5  (PRN 30)",
        "meta_object_id": "2014-008A",
        "meta_epoch": "2025-12-07T17:22:04.649088",
        "meta_mean_motion": 2.00574086,
        "meta_eccentricity": 0.007908,
        "meta_inclination": 53.6303,
        "meta_ra_of_asc_node": 157.1293,
        "meta_arg_of_pericenter": 226.426,
        "meta_mean_anomaly": 132.9228,
        "meta_ephemeris_type": 0,
        "meta_classification_type": "U",
        "meta_norad_cat_id": 39533,
        "meta_element_set_no": 999,
        "meta_rev_at_epoch": 8584,
        "meta_bstar": 0,
        "meta_mean_motion_dot": 5.5e-07,
        "meta_mean_motion_ddot": 0,
        "tle_line1": "1 39533U 14008A   25341.72366492  .00000055  00000+0  00000+0 0  9998",
        "tle_line2": "2 39533  53.6303 157.1293 0079080 226.4260 132.9228  2.00574086 85843"
      },
      "geometry": {
        "type": "Point",
        "coordinates": [
          -149.54006216421703,
          47.43433339226018
        ]
      }
    }
  ]
}